NORAD_CAT_ID,OBJECT_NAME,OBJECT_TYPE,EPOCH,MEAN_MOTION,ECCENTRICITY,INCLINATION,RA_OF_ASC_NODE,ARG_OF_PERICENTER,MEAN_ANOMALY,BSTAR,MEAN_MOTION_DOT,MEAN_MOTION_DDOT,TLE_LINE0,TLE_LINE1,TLE_LINE2,SEMIMAJOR_AXIS,PERIOD,APOGEE,PERIGEE,DECAYED
53033.0,STARLINK-4167,PAYLOAD,2022-10-10 14:00:01,15.46482872,0.0001203,53.2171,270.3668,60.5533,260.9238,-0.023196,-0.01060353,0.0,0 STARLINK-4167,1 53033U 22076AZ  22283.58334491 -.01060353  00000-0 -23196-1 0  9997,2 53033  53.2171 270.3668 0001203  60.5533 260.9238 15.46482872  1306,6805.161,93.115,427.845,426.208,0.0
53033.0,STARLINK-4167,PAYLOAD,2022-10-10 22:00:01,15.45719964,0.0001127999999999,53.2172,268.7795,70.1761,307.7279,-0.023677,-0.01054642,0.0,0 STARLINK-4167,1 53033U 22076AZ  22283.91668981 -.01054642  00000-0 -23677-1 0  9996,2 53033  53.2172 268.7795 0001128  70.1761 307.7279 15.45719964  1304,6807.4,93.16,430.033,428.49800000000016,0.0
53033.0,STARLINK-4167,PAYLOAD,2022-10-11 06:00:00,15.44963976,0.0001248,53.2172,267.1978,65.1759,8.1088,-0.024432,-0.01059781,0.0,0 STARLINK-4167,1 53033U 22076AZ  22284.25001157 -.01059781  00000-0 -24432-1 0  9999,2 53033  53.2172 267.1978 0001248  65.1759   8.1088 15.44963976 15548,6809.621,93.206,432.336,430.636,0.0
53033.0,STARLINK-4167,PAYLOAD,2022-10-11 14:00:01,15.44202712,0.0001211999999999,53.2172,265.615,81.7461,46.075,-0.025,-0.01056765,0.0,0 STARLINK-4167,1 53033U 22076AZ  22284.58334491 -.01056765  00000-0 -25000-1 0  9996,2 53033  53.2172 265.6150 0001212  81.7461  46.0750 15.44202712  1308,6811.859,93.252,434.549,432.898,0.0
53033.0,STARLINK-4167,PAYLOAD,2022-10-11 22:00:00,15.43443521,0.0001311,53.2173,264.0334,90.6496,90.7942,-0.025656,-0.01056789,0.0,0 STARLINK-4167,1 53033U 22076AZ  22284.91667824 -.01056789  00000-0 -25656-1 0  9995,2 53033  53.2173 264.0334 0001311  90.6496  90.7942 15.43443521  1306,6814.092,93.298,436.851,435.064,0.0
53033.0,STARLINK-4167,PAYLOAD,2022-10-12 06:00:00,15.42682857,0.0001356,53.2174,262.4569,75.2602,158.8929,-0.026279,-0.01069821,0.0,0 STARLINK-4167,1 53033U 22076AZ  22285.25001157 -.01069821  00000-0 -26279-1 0  9997,2 53033  53.2174 262.4569 0001356  75.2602 158.8929 15.42682857 15702,6816.331999999999,93.344,439.121,437.273,0.0
53033.0,STARLINK-4167,PAYLOAD,2022-10-12 14:00:01,15.41925346,0.0001195,53.2173,260.8794,77.1924,208.7577,-0.027062,-0.01073547,0.0,0 STARLINK-4167,1 53033U 22076AZ  22285.58334491 -.01073547  00000-0 -27062-1 0  9994,2 53033  53.2173 260.8794 0001195  77.1924 208.7577 15.41925346  1309,6818.564,93.39,441.244,439.615,0.0
53033.0,STARLINK-4167,PAYLOAD,2022-10-12 22:00:00,15.41162375,0.0001143,53.2175,259.3035,80.0095,256.8265,-0.027571,-0.01066678,0.0,0 STARLINK-4167,1 53033U 22076AZ  22285.91667824 -.01066678  00000-0 -27571-1 0  9992,2 53033  53.2175 259.3035 0001143  80.0095 256.8265 15.41162375  1300,6820.815,93.436,443.459,441.9,0.0
53033.0,STARLINK-4167,PAYLOAD,2022-10-13 06:00:00,15.40406686,0.0001171999999999,53.2175,257.7324,70.8683,315.9372,-0.028468,-0.01073375,0.0,0 STARLINK-4167,1 53033U 22076AZ  22286.25001157 -.01073375  00000-0 -28468-1 0  9999,2 53033  53.2175 257.7324 0001172  70.8683 315.9372 15.40406686 15851,6823.045,93.482,445.71,444.11,0.0
53033.0,STARLINK-4167,PAYLOAD,2022-10-13 14:00:01,15.39645344,0.0001193999999999,53.2174,256.1602,69.6269,6.2391,-0.0291029999999999,-0.01070205,0.0,0 STARLINK-4167,1 53033U 22076AZ  22286.58334491 -.01070205  00000-0 -29103-1 0  9991,2 53033  53.2174 256.1602 0001194  69.6269   6.2391 15.39645344  1302,6825.294,93.528,447.974,446.344,0.0
53033.0,STARLINK-4167,PAYLOAD,2022-10-13 22:00:00,15.38885139,0.0001295,53.2177,254.5899,75.592,48.4208,-0.029782,-0.01068209,0.0,0 STARLINK-4167,1 53033U 22076AZ  22286.91667824 -.01068209  00000-0 -29782-1 0  9991,2 53033  53.2177 254.5899 0001295  75.5920  48.4208 15.38885139  1309,6827.542,93.574,450.291,448.523,0.0
53033.0,STARLINK-4167,PAYLOAD,2022-10-14 08:00:01,15.37933812,0.0001250999999999,53.2175,252.6327,87.8363,185.1399,-0.03063,-0.01065086,0.0,0 STARLINK-4167,1 53033U 22076AZ  22287.33335648 -.01065086  00000-0 -30630-1 0  9998,2 53033  53.2175 252.6327 0001251  87.8363 185.1399 15.37933812 16027,6830.357,93.632,453.077,451.36800000000005,0.0
53033.0,STARLINK-4167,PAYLOAD,2022-10-14 14:00:01,15.3736809,0.0001312,53.2174,251.4572,87.5791,129.9879,-0.031424,-0.0107207999999999,0.0,0 STARLINK-4167,1 53033U 22076AZ  22287.58334491 -.01072080  00000-0 -31424-1 0  9994,2 53033  53.2174 251.4572 0001312  87.5791 129.9879 15.37368090  1309,6832.033,93.667,454.794,453.001,0.0
53033.0,STARLINK-4167,PAYLOAD,2022-10-14 22:00:00,15.36606517,0.0001303,53.2176,249.8925,76.6904,186.2856,-0.032052,-0.01067166,0.0,0 STARLINK-4167,1 53033U 22076AZ  22287.91667824 -.01067166  00000-0 -32052-1 0  9997,2 53033  53.2176 249.8925 0001303  76.6904 186.2856 15.36606517  1308,6834.29,93.713,457.045,455.264,0.0
53033.0,STARLINK-4167,PAYLOAD,2022-10-15 06:00:00,15.35847582,0.0001213,53.2176,248.3323,88.0849,219.3858,-0.032907,-0.01068868,0.0,0 STARLINK-4167,1 53033U 22076AZ  22288.25001157 -.01068868  00000-0 -32907-1 0  9995,2 53033  53.2176 248.3323 0001213  88.0849 219.3858 15.35847582 16167,6836.541,93.759,459.235,457.577,0.0
53033.0,STARLINK-4167,PAYLOAD,2022-10-15 14:00:01,15.350887699999998,0.0001107,53.2174,246.7705,91.2723,259.7823,-0.0337839999999999,-0.01070669,0.0,0 STARLINK-4167,1 53033U 22076AZ  22288.58334491 -.01070669  00000-0 -33784-1 0  9997,2 53033  53.2174 246.7705 0001107  91.2723 259.7823 15.35088770  1306,6838.794,93.806,461.416,459.902,0.0
53033.0,STARLINK-4167,PAYLOAD,2022-10-15 22:00:01,15.34327048,0.0001158,53.2175,245.2113,77.3803,316.4095,-0.034451,-0.01065897,0.0,0 STARLINK-4167,1 53033U 22076AZ  22288.91668981 -.01065897  00000-0 -34451-1 0  9997,2 53033  53.2175 245.2113 0001158  77.3803 316.4095 15.34327048  1309,6841.057,93.852,463.714,462.13,0.0
53033.0,STARLINK-4167,PAYLOAD,2022-10-16 06:00:00,15.33569283,0.0001306,53.2175,243.6564,63.9496,11.5326,-0.0354149999999999,-0.01069284,0.0,0 STARLINK-4167,1 53033U 22076AZ  22289.25001157 -.01069284  00000-0 -35415-1 0  9996,2 53033  53.2175 243.6564 0001306  63.9496  11.5326 15.33569283 16310,6843.31,93.899,466.069,464.282,0.0
53033.0,STARLINK-4167,PAYLOAD,2022-10-16 14:00:01,15.32809084,0.0001234,53.2174,242.1,91.9942,24.3342,-0.0362269999999999,-0.01067829,0.0,0 STARLINK-4167,1 53033U 22076AZ  22289.58334491 -.01067829  00000-0 -36227-1 0  9997,2 53033  53.2174 242.1000 0001234  91.9942  24.3342 15.32809084  1303,6845.573,93.945,468.283,466.593,0.0
53033.0,STARLINK-4167,PAYLOAD,2022-10-16 22:00:00,15.32048538,0.0001345,53.2176,240.5464,95.7212,60.5401,-0.037025,-0.01065653,0.0,0 STARLINK-4167,1 53033U 22076AZ  22289.91667824 -.01065653  00000-0 -37025-1 0  9993,2 53033  53.2176 240.5464 0001345  95.7212  60.5401 15.32048538  1303,6847.8380000000025,93.992,470.624,468.782,0.0
53033.0,STARLINK-4167,PAYLOAD,2022-10-17 06:00:00,15.31288246,0.0001404,53.2174,238.9968,76.9106,118.3698,-0.03787,-0.01064352,0.0,0 STARLINK-4167,1 53033U 22076AZ  22290.25001157 -.01064352  00000-0 -37870-1 0  9996,2 53033  53.2174 238.9968 0001404  76.9106 118.3698 15.31288246 16475,6850.105,94.038,472.931,471.008,0.0
53033.0,STARLINK-4167,PAYLOAD,2022-10-17 14:00:01,15.30531557,0.0001371,53.2175,237.4456,69.6241,163.7634,-0.038969,-0.01069171,0.0,0 STARLINK-4167,1 53033U 22076AZ  22290.58334491 -.01069171  00000-0 -38969-1 0  9996,2 53033  53.2175 237.4456 0001371  69.6241 163.7634 15.30531557  1309,6852.361999999999,94.085,475.167,473.288,0.0
53033.0,STARLINK-4167,PAYLOAD,2022-10-17 22:00:00,15.29770417,0.0001326,53.2175,235.8976,100.9018,169.6806,-0.039763,-0.01065693,0.0,0 STARLINK-4167,1 53033U 22076AZ  22290.91667824 -.01065693  00000-0 -39763-1 0  9990,2 53033  53.2175 235.8976 0001326 100.9018 169.6806 15.29770417  1303,6854.635,94.132,477.409,475.591,0.0
53033.0,STARLINK-4167,PAYLOAD,2022-10-18 08:00:01,15.28822156,0.0001139999999999,53.2167,233.968,75.2833,330.5065,-0.040999,-0.0106686,0.0,0 STARLINK-4167,1 53033U 22076AZ  22291.33334491 -.01066860  00000-0 -40999-1 0  9998,2 53033  53.2167 233.9680 0001140  75.2833 330.5065 15.28822156 16633,6857.469,94.19,480.116,478.552,0.0
53033.0,STARLINK-4167,PAYLOAD,2022-10-18 14:00:01,15.28252269,0.0001133,53.2174,232.8074,86.6597,255.5735,-0.041776,-0.01068034,0.0,0 STARLINK-4167,1 53033U 22076AZ  22291.58334491 -.01068034  00000-0 -41776-1 0  9994,2 53033  53.2174 232.8074 0001133  86.6597 255.5735 15.28252269  1301,6859.174,94.225,481.816,480.262,0.0
53033.0,STARLINK-4167,PAYLOAD,2022-10-18 22:00:00,15.27498951,0.0001171,53.2166,231.2657,77.0981,299.5878,-0.0430829999999999,-0.01075583,0.0,0 STARLINK-4167,1 53033U 22076AZ  22291.91667824 -.01075583  00000-0 -43083-1 0  9990,2 53033  53.2166 231.2657 0001171  77.0981 299.5878 15.27498951  1300,6861.429,94.272,484.097,482.49,0.0
53033.0,STARLINK-4167,PAYLOAD,2022-10-19 14:00:01,15.25971824,0.0001186,53.2175,228.1853,92.3869,350.4786,-0.0446279999999999,-0.0106444,0.0,0 STARLINK-4167,1 53033U 22076AZ  22292.58334491 -.01064440  00000-0 -44628-1 0  9991,2 53033  53.2175 228.1853 0001186  92.3869 350.4786 15.25971824  1302,6866.005999999999,94.366,488.685,487.056,0.0
53033.0,STARLINK-4167,PAYLOAD,2022-10-19 22:00:00,15.25213067,0.0001305,53.2174,226.6482,79.7127,34.8709,-0.045709,-0.0106539,0.0,0 STARLINK-4167,1 53033U 22076AZ  22292.91667824 -.01065390  00000-0 -45709-1 0  9993,2 53033  53.2174 226.6482 0001305  79.7127  34.8709 15.25213067  1307,6868.283,94.413,491.044,489.251,0.0
53033.0,STARLINK-4167,PAYLOAD,2022-10-20 08:00:01,15.2426353,0.000133,53.2171,224.7307,78.8759,164.0713,-0.046992,-0.01064479,0.0,0 STARLINK-4167,1 53033U 22076AZ  22293.33334491 -.01064479  00000-0 -46992-1 0  9993,2 53033  53.2171 224.7307 0001330  78.8759 164.0713 15.24263530 16944,6871.135,94.472,493.914,492.086,0.0
